{"type": "FeatureCollection", "features": [ {"type": "Feature", "properties": {"norad_id": 40115, "name": "WORLDVIEW-3 (WV-3)", "group": "resource", "lat": 71.34473873486726, "lon": -98.82861157979978, "alt_km": 604.8287633093141, "timestamp": "2025-12-10T16:57:11.291809+00:00", "meta": {"OBJECT_NAME": "WORLDVIEW-3 (WV-3)", "OBJECT_ID": "2014-048A", "EPOCH": "2025-12-10T11:37:24.150720", "MEAN_MOTION": 14.85502724, "ECCENTRICITY": 0.0004572, "INCLINATION": 97.8618, "RA_OF_ASC_NODE": 56.7929, "ARG_OF_PERICENTER": 192.3918, "MEAN_ANOMALY": 167.7185, "EPHEMERIS_TYPE": 0, "CLASSIFICATION_TYPE": "U", "NORAD_CAT_ID": 40115, "ELEMENT_SET_NO": 999, "REV_AT_EPOCH": 61390, "BSTAR": 0.0002197, "MEAN_MOTION_DOT": 1.843e-05, "MEAN_MOTION_DDOT": 0}, "tle": {"line1": "1 40115U 14048A   25344.48430730  .00001843  00000+0  21970-3 0  9992", "line2": "2 40115  97.8618  56.7929 0004572 192.3918 167.7185 14.85502724613903"}}, "geometry": {"type": "Point", "coordinates": [-98.82861157979978, 71.34473873486726]}}, {"type": "Feature", "properties": {"norad_id": 40118, "name": "GAOFEN-2", "group": "resource", "lat": -39.47843683739118, "lon": 50.555481525865524, "alt_km": 639.4176664702172, "timestamp": "2025-12-10T16:57:11.291819+00:00", "meta": {"OBJECT_NAME": "GAOFEN-2", "OBJECT_ID": "2014-049A", "EPOCH": "2025-12-10T12:16:03.355680", "MEAN_MOTION": 14.80601169, "ECCENTRICITY": 0.0008442, "INCLINATION": 98.0382, "RA_OF_ASC_NODE": 43.6754, "ARG_OF_PERICENTER": 118.7844, "MEAN_ANOMALY": 241.4217, "EPHEMERIS_TYPE": 0, "CLASSIFICATION_TYPE": "U", "NORAD_CAT_ID": 40118, "ELEMENT_SET_NO": 999, "REV_AT_EPOCH": 61131, "BSTAR": 0.00013644, "MEAN_MOTION_DOT": 9.94e-06, "MEAN_MOTION_DDOT": 0}, "tle": {"line1": "1 40118U 14049A   25344.51114995  .00000994  00000+0  13644-3 0  9997", "line2": "2 40118  98.0382  43.6754 0008442 118.7844 241.4217 14.80601169611315"}}, "geometry": {"type": "Point", "coordinates": [50.555481525865524, -39.47843683739118]}}, {"type": "Feature", "properties": {"norad_id": 40143, "name": "YAOGAN-21", "group": "resource", "lat": -30.837625970784867, "lon": 32.42044185254894, "alt_km": 499.6279956847993, "timestamp": "2025-12-10T16:57:11.291829+00:00", "meta": {"OBJECT_NAME": "YAOGAN-21", "OBJECT_ID": "2014-053A", "EPOCH": "2025-12-10T12:21:38.598048", "MEAN_MOTION": 15.2364388, "ECCENTRICITY": 0.000993, "INCLINATION": 97.1754, "RA_OF_ASC_NODE": 27.924, "ARG_OF_PERICENTER": 48.6437, "MEAN_ANOMALY": 311.5653, "EPHEMERIS_TYPE": 0, "CLASSIFICATION_TYPE": "U", "NORAD_CAT_ID": 40143, "ELEMENT_SET_NO": 999, "REV_AT_EPOCH": 62620, "BSTAR": 0.00058094, "MEAN_MOTION_DOT": 0.00013888, "MEAN_MOTION_DDOT": 0}, "tle": {"line1": "1 40143U 14053A   25344.51503007  .00013888  00000+0  58094-3 0  9990", "line2": "2 40143  97.1754  27.9240 0009930  48.6437 311.5653 15.23643880626204"}}, "geometry": {"type": "Point", "coordinates": [32.42044185254894, -30.837625970784867]}}, {"type": "Feature", "properties": {"norad_id": 40275, "name": "YAOGAN-22", "group": "resource", "lat": -63.025655356900174, "lon": -73.80083310075909, "alt_km": 1204.4778021317534, "timestamp": "2025-12-10T16:57:11.291839+00:00", "meta": {"OBJECT_NAME": "YAOGAN-22", "OBJECT_ID": "2014-063A", "EPOCH": "2025-12-10T08:24:35.604576", "MEAN_MOTION": 13.1552254, "ECCENTRICITY": 0.0005945, "INCLINATION": 100.7419, "RA_OF_ASC_NODE": 127.7362, "ARG_OF_PERICENTER": 254.178, "MEAN_ANOMALY": 105.8676, "EPHEMERIS_TYPE": 0, "CLASSIFICATION_TYPE": "U", "NORAD_CAT_ID": 40275, "ELEMENT_SET_NO": 999, "REV_AT_EPOCH": 53498, "BSTAR": 0.00010244, "MEAN_MOTION_DOT": -8e-08, "MEAN_MOTION_DDOT": 0}, "tle": {"line1": "1 40275U 14063A   25344.35041209 -.00000008  00000+0  10244-3 0  9996", "line2": "2 40275 100.7419 127.7362 0005945 254.1780 105.8676 13.15522540534980"}}, "geometry": {"type": "Point", "coordinates": [-73.80083310075909, -63.025655356900174]}}, {"type": "Feature", "properties": {"norad_id": 40298, "name": "ASNARO", "group": "resource", "lat": 46.932442078491526, "lon": 52.749010117307975, "alt_km": 502.81288387420045, "timestamp": "2025-12-10T16:57:11.291849+00:00", "meta": {"OBJECT_NAME": "ASNARO", "OBJECT_ID": "2014-070A", "EPOCH": "2025-12-10T12:00:11.920608", "MEAN_MOTION": 15.1941956, "ECCENTRICITY": 0.0005426, "INCLINATION": 97.3645, "RA_OF_ASC_NODE": 60.5014, "ARG_OF_PERICENTER": 127.7803, "MEAN_ANOMALY": 232.3924, "EPHEMERIS_TYPE": 0, "CLASSIFICATION_TYPE": "U", "NORAD_CAT_ID": 40298, "ELEMENT_SET_NO": 999, "REV_AT_EPOCH": 61535, "BSTAR": 0.00086, "MEAN_MOTION_DOT": 0.00018185, "MEAN_MOTION_DDOT": 0}, "tle": {"line1": "1 40298U 14070A   25344.50013797  .00018185  00000+0  86000-3 0  9994", "line2": "2 40298  97.3645  60.5014 0005426 127.7803 232.3924 15.19419560615356"}}, "geometry": {"type": "Point", "coordinates": [52.749010117307975, 46.932442078491526]}}, {"type": "Feature", "properties": {"norad_id": 40310, "name": "YAOGAN-24", "group": "resource", "lat": -23.61244927439745, "lon": 119.36818791422313, "alt_km": 656.9877603298337, "timestamp": "2025-12-10T16:57:11.291858+00:00", "meta": {"OBJECT_NAME": "YAOGAN-24", "OBJECT_ID": "2014-072A", "EPOCH": "2025-12-10T12:10:51.087072", "MEAN_MOTION": 14.76168245, "ECCENTRICITY": 0.0014631, "INCLINATION": 98.1225, "RA_OF_ASC_NODE": 115.5889, "ARG_OF_PERICENTER": 144.6796, "MEAN_ANOMALY": 215.5385, "EPHEMERIS_TYPE": 0, "CLASSIFICATION_TYPE": "U", "NORAD_CAT_ID": 40310, "ELEMENT_SET_NO": 999, "REV_AT_EPOCH": 59588, "BSTAR": 0.00017358, "MEAN_MOTION_DOT": 1.149e-05, "MEAN_MOTION_DDOT": 0}, "tle": {"line1": "1 40310U 14072A   25344.50753573  .00001149  00000+0  17358-3 0  9996", "line2": "2 40310  98.1225 115.5889 0014631 144.6796 215.5385 14.76168245595884"}}, "geometry": {"type": "Point", "coordinates": [119.36818791422313, -23.61244927439745]}}, {"type": "Feature", "properties": {"norad_id": 40336, "name": "CBERS 4", "group": "resource", "lat": 13.694878419716746, "lon": 40.7463232839028, "alt_km": 774.5329164185932, "timestamp": "2025-12-10T16:57:11.291868+00:00", "meta": {"OBJECT_NAME": "CBERS 4", "OBJECT_ID": "2014-079A", "EPOCH": "2025-12-10T10:11:50.920224", "MEAN_MOTION": 14.35517122, "ECCENTRICITY": 0.0001606, "INCLINATION": 98.3307, "RA_OF_ASC_NODE": 42.5207, "ARG_OF_PERICENTER": 113.8855, "MEAN_ANOMALY": 246.25, "EPHEMERIS_TYPE": 0, "CLASSIFICATION_TYPE": "U", "NORAD_CAT_ID": 40336, "ELEMENT_SET_NO": 999, "REV_AT_EPOCH": 57687, "BSTAR": 0.00017713, "MEAN_MOTION_DOT": 4.68e-06, "MEAN_MOTION_DDOT": 0}, "tle": {"line1": "1 40336U 14079A   25344.42489491  .00000468  00000+0  17713-3 0  9995", "line2": "2 40336  98.3307  42.5207 0001606 113.8855 246.2500 14.35517122576875"}}, "geometry": {"type": "Point", "coordinates": [40.7463232839028, 13.694878419716746]}}, {"type": "Feature", "properties": {"norad_id": 40362, "name": "YAOGAN-26", "group": "resource", "lat": -68.95978766569475, "lon": 4.261646774865084, "alt_km": 457.06037826763804, "timestamp": "2025-12-10T16:57:11.291878+00:00", "meta": {"OBJECT_NAME": "YAOGAN-26", "OBJECT_ID": "2014-088A", "EPOCH": "2025-12-10T12:34:35.042016", "MEAN_MOTION": 15.39165194, "ECCENTRICITY": 0.0006559, "INCLINATION": 97.0651, "RA_OF_ASC_NODE": 345.2763, "ARG_OF_PERICENTER": 36.0878, "MEAN_ANOMALY": 324.081, "EPHEMERIS_TYPE": 0, "CLASSIFICATION_TYPE": "U", "NORAD_CAT_ID": 40362, "ELEMENT_SET_NO": 999, "REV_AT_EPOCH": 60860, "BSTAR": 0.00039747, "MEAN_MOTION_DOT": 0.00015375, "MEAN_MOTION_DDOT": 0}, "tle": {"line1": "1 40362U 14088A   25344.52401669  .00015375  00000+0  39747-3 0  9990", "line2": "2 40362  97.0651 345.2763 0006559  36.0878 324.0810 15.39165194608604"}}, "geometry": {"type": "Point", "coordinates": [4.261646774865084, -68.95978766569475]}}, {"type": "Feature", "properties": {"norad_id": 40376, "name": "SMAP", "group": "resource", "lat": 13.14038447840395, "lon": -12.452738780086811, "alt_km": 683.3125675016918, "timestamp": "2025-12-10T16:57:11.291888+00:00", "meta": {"OBJECT_NAME": "SMAP", "OBJECT_ID": "2015-003A", "EPOCH": "2025-12-10T11:58:10.064640", "MEAN_MOTION": 14.63340562, "ECCENTRICITY": 0.0001202, "INCLINATION": 98.1291, "RA_OF_ASC_NODE": 349.2548, "ARG_OF_PERICENTER": 88.7166, "MEAN_ANOMALY": 271.4174, "EPHEMERIS_TYPE": 0, "CLASSIFICATION_TYPE": "U", "NORAD_CAT_ID": 40376, "ELEMENT_SET_NO": 999, "REV_AT_EPOCH": 58002, "BSTAR": 0.0001877, "MEAN_MOTION_DOT": 9.22e-06, "MEAN_MOTION_DDOT": 0}, "tle": {"line1": "1 40376U 15003A   25344.49872760  .00000922  00000+0  18770-3 0  9998", "line2": "2 40376  98.1291 349.2548 0001202  88.7166 271.4174 14.63340562580023"}}, "geometry": {"type": "Point", "coordinates": [-12.452738780086811, 13.14038447840395]}}, {"type": "Feature", "properties": {"norad_id": 40536, "name": "KOMPSAT-3A", "group": "resource", "lat": -16.4687223076518, "lon": 136.6544208461374, "alt_km": 438.48704460296267, "timestamp": "2025-12-10T16:57:11.291898+00:00", "meta": {"OBJECT_NAME": "KOMPSAT-3A", "OBJECT_ID": "2015-014A", "EPOCH": "2025-12-10T11:26:17.459808", "MEAN_MOTION": 15.4381226, "ECCENTRICITY": 0.0004676, "INCLINATION": 97.6792, "RA_OF_ASC_NODE": 318.698, "ARG_OF_PERICENTER": 131.7964, "MEAN_ANOMALY": 228.3683, "EPHEMERIS_TYPE": 0, "CLASSIFICATION_TYPE": "U", "NORAD_CAT_ID": 40536, "ELEMENT_SET_NO": 999, "REV_AT_EPOCH": 59260, "BSTAR": 0.00060154, "MEAN_MOTION_DOT": 0.0002722, "MEAN_MOTION_DDOT": 0}, "tle": {"line1": "1 40536U 15014A   25344.47659097  .00027220  00000+0  60154-3 0  9995", "line2": "2 40536  97.6792 318.6980 0004676 131.7964 228.3683 15.43812260592605"}}, "geometry": {"type": "Point", "coordinates": [136.6544208461374, -16.4687223076518]}}]}